ONEWEB-0674             
1 55833U 23029AP  26018.83749238 -.00000042  00000+0 -14905-3 0  9990
2 55833  87.9024 319.4959 0001999  65.3157 294.8181 13.14502543139791
ONEWEB-0675             
1 55834U 23029AQ  26018.92398049  .00000000  00000+0 -32531-4 0  9990
2 55834  87.9225 334.6878 0001683  89.2023 270.9302 13.19725748139239
ONEWEB-0720             
1 55835U 23029AR  26018.91607681  .00000077  00000+0  16083-3 0  9991
2 55835  87.9228 334.6878 0001486  72.8713 287.2583 13.19725771139157
ONEWEB-0537             
1 56046U 23043A   26018.93656814  .00000046  00000+0  85616-4 0  9991
2 56046  87.9026 258.4875 0001536  87.6044 272.5263 13.16595152139321
ONEWEB-0538             
1 56047U 23043B   26018.93023111 -.00000019  00000+0 -82611-4 0  9994
2 56047  87.9024 258.4920 0001236  86.7700 273.3572 13.16594722139332
ONEWEB-0546             
1 56048U 23043C   26018.91756593 -.00000022  00000+0 -91819-4 0  9994
2 56048  87.9030 258.4895 0001938  97.4178 262.7173 13.16595121139320
ONEWEB-0547             
1 56049U 23043D   26018.97557452  .00000023  00000+0  23033-4 0  9996
2 56049  87.9218 273.7383 0001427  76.1167 284.0126 13.21823303138513
ONEWEB-0548             
1 56050U 23043E   26018.94210623  .00000049  00000+0  94456-4 0  9996
2 56050  87.9023 258.4867 0001815  67.6355 292.4968 13.16593295139326
